STARLINK-1135
1 15049C 20006F   21326.12970839  .00000927  00000-0  62116-4 0  3265
2 15049  53.0531 128.1651 0001605  80.4893 180.5525 15.06389495    16
